NORAD_CAT_ID,OBJECT_NAME,OBJECT_TYPE,EPOCH,MEAN_MOTION,ECCENTRICITY,INCLINATION,RA_OF_ASC_NODE,ARG_OF_PERICENTER,MEAN_ANOMALY,BSTAR,MEAN_MOTION_DOT,MEAN_MOTION_DDOT,TLE_LINE0,TLE_LINE1,TLE_LINE2,SEMIMAJOR_AXIS,PERIOD,APOGEE,PERIGEE,DECAYED
52848.0,STARLINK-4202,PAYLOAD,2022-11-20 13:26:09,15.08835074,0.0002805,53.2185,44.1735,23.4982,336.6138,1.1367e-05,-1.08e-06,0.0,0 STARLINK-4202,1 52848U 22062U   22324.55983480 -.00000108  00000-0  11367-4 0  9996,2 52848  53.2185  44.1735 0002805  23.4982 336.6138 15.08835074 23859,6917.895,95.438,541.701,537.82,0.0
52848.0,STARLINK-4202,PAYLOAD,2022-11-21 03:44:37,15.08840412,0.0002794,53.2174,41.4967,27.438,332.676,6.1137e-05,6.85e-06,0.0,0 STARLINK-4202,1 52848U 22062U   22325.15598959  .00000685  00000-0  61137-4 0  9995,2 52848  53.2174  41.4967 0002794  27.4380 332.6760 15.08840412 24431,6917.879,95.438,541.677,537.811,0.0
52848.0,STARLINK-4202,PAYLOAD,2022-11-21 11:41:33,15.08836398,0.0002821,53.2185,40.0104,23.669,336.4431,-1.3161e-05,-4.98e-06,0.0,0 STARLINK-4202,1 52848U 22062U   22325.48719441 -.00000498  00000-0 -13161-4 0  9990,2 52848  53.2185  40.0104 0002821  23.6690 336.4431 15.08836398 23999,6917.891,95.438,541.7080000000002,537.805,0.0
52848.0,STARLINK-4202,PAYLOAD,2022-11-21 14:52:19,15.08838698,0.0002833999999999,53.2182,39.4154,23.0201,337.0917,5.403099999999998e-06,-2.03e-06,0.0,0 STARLINK-4202,1 52848U 22062U   22325.61967268 -.00000203  00000-0  54031-5 0  9992,2 52848  53.2182  39.4154 0002834  23.0201 337.0917 15.08838698 24014,6917.884,95.438,541.71,537.789,0.0
52848.0,STARLINK-4202,PAYLOAD,2022-11-22 13:07:43,15.08845414,0.000291,53.2182,35.2533,21.124,338.9872,0.0001144,1.533e-05,0.0,0 STARLINK-4202,1 52848U 22062U   22326.54702722  .00001533  00000-0  11440-3 0  9998,2 52848  53.2182  35.2533 0002910  21.1240 338.9872 15.08845414 24649,6917.864000000001,95.437,541.742,537.716,0.0
52848.0,STARLINK-4202,PAYLOAD,2022-11-23 05:01:34,15.08834898,0.000302,53.2175,32.2803,24.6921,335.4215,0.0001039,1.365e-05,0.0,0 STARLINK-4202,1 52848U 22062U   22327.20943173  .00001365  00000-0  10390-3 0  9995,2 52848  53.2175  32.2803 0003020  24.6921 335.4215 15.08834898 24743,6917.896,95.438,541.85,537.672,0.0
52848.0,STARLINK-4202,PAYLOAD,2022-11-23 11:23:08,15.08828106,0.0002963,53.2186,31.0899,25.2335,334.8801,8.0405e-05,9.91e-06,0.0,0 STARLINK-4202,1 52848U 22062U   22327.47440027  .00000991  00000-0  80405-4 0  9993,2 52848  53.2186  31.0899 0002963  25.2335 334.8801 15.08828106 24297,6917.917,95.438,541.832,537.732,0.0
52848.0,STARLINK-4202,PAYLOAD,2022-11-23 12:58:31,15.08827704,0.0003003999999999,53.2183,30.7924,22.4836,337.6287,6.5366e-05,7.52e-06,0.0,0 STARLINK-4202,1 52848U 22062U   22327.54064246  .00000752  00000-0  65366-4 0  9990,2 52848  53.2183  30.7924 0003004  22.4836 337.6287 15.08827704 24798,6917.918000000002,95.438,541.861,537.705,0.0
52848.0,STARLINK-4202,PAYLOAD,2022-11-24 04:52:22,15.08843322,0.0002975,53.2182,27.81900000000001,22.6352,337.4771,6.2682e-06,-1.89e-06,0.0,0 STARLINK-4202,1 52848U 22062U   22328.20303663 -.00000189  00000-0  62682-5 0  9997,2 52848  53.2182  27.8190 0002975  22.6352 337.4771 15.08843322 24891,6917.87,95.437,541.793,537.677,0.0
52848.0,STARLINK-4202,PAYLOAD,2022-11-24 11:13:54,15.08845463,0.0003061,53.2182,26.6296,24.2102,335.9033,5.8608e-05,6.44e-06,0.0,0 STARLINK-4202,1 52848U 22062U   22328.46799372  .00000644  00000-0  58608-4 0  9998,2 52848  53.2182  26.6296 0003061  24.2102 335.9033 15.08845463 24446,6917.864000000001,95.437,541.846,537.611,0.0
52848.0,STARLINK-4202,PAYLOAD,2022-11-24 12:49:17,15.08859239,0.0003114,53.218,26.3322,23.3002,336.8130000000001,-0.00013947,-2.509e-05,0.0,0 STARLINK-4202,1 52848U 22062U   22328.53422910 -.00002509  00000-0 -13947-3 0  9997,2 52848  53.2180  26.3322 0003114  23.3002 336.8130 15.08859239 24948,6917.821999999999,95.436,541.841,537.5319999999998,0.0
52848.0,STARLINK-4202,PAYLOAD,2022-11-25 04:43:09,15.08832316,0.0003039,53.2181,23.3586,23.5,336.6131,0.00013949,1.932e-05,0.0,0 STARLINK-4202,1 52848U 22062U   22329.19664033  .00001932  00000-0  13949-3 0  9993,2 52848  53.2181  23.3586 0003039  23.5000 336.6131 15.08832316 25042,6917.904,95.438,541.871,537.6669999999998,0.0
52848.0,STARLINK-4202,PAYLOAD,2022-11-25 12:40:05,15.08838488,0.0003066,53.2182,21.8718,24.2007,335.9129,0.00018994,2.736e-05,0.0,0 STARLINK-4202,1 52848U 22062U   22329.52783879  .00002736  00000-0  18994-3 0  9998,2 52848  53.2182  21.8718 0003066  24.2007 335.9129 15.08838488 24604,6917.885,95.438,541.871,537.629,0.0
52848.0,STARLINK-4202,PAYLOAD,2022-11-25 20:37:00,15.088483600000002,0.0003168,53.2183,20.3848,24.2864,335.8277,0.00023902,3.519e-05,0.0,0 STARLINK-4202,1 52848U 22062U   22329.85903254  .00003519  00000-0  23902-3 0  9990,2 52848  53.2183  20.3848 0003168  24.2864 335.8277 15.08848360 24655,6917.855,95.437,541.911,537.528,0.0
52848.0,STARLINK-4202,PAYLOAD,2022-11-26 10:55:28,15.0884652,0.0003244,53.2176,17.7084,24.7655,335.3492,8.8861e-05,1.126e-05,0.0,0 STARLINK-4202,1 52848U 22062U   22330.45519194  .00001126  00000-0  88861-4 0  9992,2 52848  53.2176  17.7084 0003244  24.7655 335.3492 15.08846520 24747,6917.86,95.437,541.97,537.481,0.0
52848.0,STARLINK-4202,PAYLOAD,2022-11-26 20:27:46,15.08854965,0.0003258,53.2178,15.9238,24.9376,335.1773,0.00019184,2.767e-05,0.0,0 STARLINK-4202,1 52848U 22062U   22330.85262539  .00002767  00000-0  19184-3 0  9997,2 52848  53.2178  15.9238 0003258  24.9376 335.1773 15.08854965 24806,6917.835,95.437,541.953,537.446,0.0
52848.0,STARLINK-4202,PAYLOAD,2022-11-27 04:24:43,15.08838043,0.0003161,53.2172,14.4378,18.4423,341.6684,-5.1485e-05,-1.108e-05,0.0,0 STARLINK-4202,1 52848U 22062U   22331.18383188 -.00001108  00000-0 -51485-4 0  9999,2 52848  53.2172  14.4378 0003161  18.4423 341.6684 15.08838043 25345,6917.886,95.438,541.938,537.565,0.0
52848.0,STARLINK-4202,PAYLOAD,2022-11-27 12:21:39,15.08833113,0.0003086,53.2183,12.9506,22.4843,337.6284,-4.625e-05,-1.025e-05,0.0,0 STARLINK-4202,1 52848U 22062U   22331.51504018 -.00001025  00000-0 -46250-4 0  9995,2 52848  53.2183  12.9506 0003086  22.4843 337.6284 15.08833113 25399,6917.901,95.438,541.901,537.632,0.0
52848.0,STARLINK-4202,PAYLOAD,2022-11-27 20:18:35,15.08831964,0.000313,53.2185,11.4635,22.8371,337.276,-2.1555e-05,-6.32e-06,0.0,0 STARLINK-4202,1 52848U 22062U   22331.84624145 -.00000632  00000-0 -21555-4 0  9999,2 52848  53.2185  11.4635 0003130  22.8371 337.2760 15.08831964 24956,6917.905,95.438,541.935,537.605,0.0
52848.0,STARLINK-4202,PAYLOAD,2022-11-28 04:15:30,15.08843315,0.0003119,53.2185,9.9768,23.4644,336.649,3.4655e-05,2.63e-06,0.0,0 STARLINK-4202,1 52848U 22062U   22332.17743114  .00000263  00000-0  34655-4 0  9997,2 52848  53.2185   9.9768 0003119  23.4644 336.6490 15.08843315 25498,6917.87,95.437,541.893,537.578,0.0
52848.0,STARLINK-4202,PAYLOAD,2022-11-28 12:12:26,15.0883717,0.0003211,53.2185,8.4907,22.0792,338.0338,-5.93e-05,-1.232e-05,0.0,0 STARLINK-4202,1 52848U 22062U   22332.50863814 -.00001232  00000-0 -59300-4 0  9997,2 52848  53.2185   8.4907 0003211  22.0792 338.0338 15.08837170 25544,6917.889,95.438,541.975,537.533,0.0
52848.0,STARLINK-4202,PAYLOAD,2022-11-29 08:52:26,15.08852103,0.0003371,53.2184,4.6248,22.2707,337.8431,-3.6299e-05,-8.67e-06,0.0,0 STARLINK-4202,1 52848U 22062U   22333.36974671 -.00000867  00000-0 -36299-4 0  9991,2 52848  53.2184   4.6248 0003371  22.2707 337.8431 15.08852103 25672,6917.843000000003,95.437,542.04,537.376,0.0
52848.0,STARLINK-4202,PAYLOAD,2022-11-29 10:27:49,15.08838731,0.0003409,53.2181,4.3281,21.7142,338.3994,0.00018503,2.657e-05,0.0,0 STARLINK-4202,1 52848U 22062U   22333.43599072  .00002657  00000-0  18503-3 0  9991,2 52848  53.2181   4.3281 0003409  21.7142 338.3994 15.08838731 25190,6917.884,95.438,542.1080000000002,537.391,0.0
52848.0,STARLINK-4202,PAYLOAD,2022-11-30 00:46:18,15.08832944,0.000336,53.2178,1.6514,25.5136,334.6021,1.786e-05,-5e-08,0.0,0 STARLINK-4202,1 52848U 22062U   22334.03216170 -.00000005  00000-0  17860-4 0  9995,2 52848  53.2178   1.6514 0003360  25.5136 334.6021 15.08832944 25770,6917.901999999999,95.438,542.091,537.443,0.0
52848.0,STARLINK-4202,PAYLOAD,2022-11-30 18:15:33,15.08829899,0.0003385,53.2178,358.3801,25.7201,334.3959,5.3682e-05,5.65e-06,0.0,0 STARLINK-4202,1 52848U 22062U   22334.76080688  .00000565  00000-0  53682-4 0  9990,2 52848  53.2178 358.3801 0003385  25.7201 334.3959 15.08829899 25393,6917.911,95.438,542.118,537.435,0.0
52848.0,STARLINK-4202,PAYLOAD,2022-12-01 02:12:28,15.08841612,0.0003177,53.2186,356.8927,24.9783,335.1362,2.9953000000000013e-05,1.88e-06,0.0,0 STARLINK-4202,1 52848U 22062U   22335.09200047  .00000188  00000-0  29953-4 0  9995,2 52848  53.2186 356.8927 0003177  24.9783 335.1362 15.08841612 25933,6917.875,95.437,541.938,537.543,0.0
52848.0,STARLINK-4202,PAYLOAD,2022-12-01 10:09:24,15.08839725,0.0003208999999999,53.2184,355.4059,24.212,335.9023,-3.1466e-06,-3.39e-06,0.0,0 STARLINK-4202,1 52848U 22062U   22335.42320331 -.00000339  00000-0 -31466-5 0  9994,2 52848  53.2184 355.4059 0003209  24.2120 335.9023 15.08839725 25491,6917.880999999999,95.438,541.966,537.526,0.0
52848.0,STARLINK-4202,PAYLOAD,2022-12-01 18:06:20,15.08830265,0.0003227,53.2183,353.9193,25.5448,334.5703,0.00014053,1.948e-05,0.0,0 STARLINK-4202,1 52848U 22062U   22335.75440683  .00001948  00000-0  14053-3 0  9999,2 52848  53.2183 353.9193 0003227  25.5448 334.5703 15.08830265 26030,6917.91,95.438,542.008,537.543,0.0
52848.0,STARLINK-4202,PAYLOAD,2022-12-02 10:00:11,15.08838447,0.0003281,53.2179,350.9465,23.0041,337.1097,0.00015119,2.118e-05,0.0,0 STARLINK-4202,1 52848U 22062U   22336.41680247  .00002118  00000-0  15119-3 0  9999,2 52848  53.2179 350.9465 0003281  23.0041 337.1097 15.08838447 26132,6917.885,95.438,542.02,537.48,0.0
